#dP2022  5 18  0  0  0.00000000      97 __u+U IGS14 FIT  IAC
## 2210 259200.00000000   900.00000000 59717 0.0000000000000
+  115   C06C07C08C09C10C11C12C13C14C16C19C20C21C22C23C24C25
+        C26C27C28C29C30C32C33C34C35C36C37C38C39C40C41C42C43
+        C44C45C46E02E03E04E05E07E08E09E10E11E12E13E14E15E18
+        E19E21E24E25E26E27E30E31E33E34E36G01G02G03G04G05G06
+        G07G08G09G10G12G13G14G15G16G17G18G19G20G21G22G23G24
+        G25G26G27G28G29G30G31G32J02J03R01R02R03R04R05R07R08
+        R09R11R12R13R14R15R17R18R19R20R21R22R24  0  0  0  0
++         7  7  7  7  7  6  6  7  7  7  5  6  5  5  6  5  5
++         6  6  6  5  5  6  6  5  5  6  6  6  6  7  6  6  6
++         6  6  6  4  4  4  4  4  4  4  5  4  4  4  5  4  4
++         5  4  4  4  4  4  4  4  5  4  4  3  3  4  3  3  3
++         3  3  3  3  4  3  4  4  3  4  5  4  3  3  4  3  3
++         3  4  3  4  3  3  4  4  9  9  6  6  6  6  6  6  6
++         6  6  6  7  6  6  6  6  7  7  6  7  6  0  0  0  0
%c M  cc GPS ccc cccc cccc cccc cccc ccccc ccccc ccccc ccccc
%c cc cc ccc ccc cccc cccc cccc cccc ccccc ccccc ccccc ccccc
%f  1.2500000  1.025000000  0.00000000000  0.000000000000000
%f  0.0000000  0.000000000  0.00000000000  0.000000000000000
%i    0    0    0    0      0      0      0      0         0
%i    0    0    0    0      0      0      0      0         0
/* INFORMATION & ANALYSIS CENTER (IAC)            FINAL DATA
/* S/V CLOCKS ARE ALIGNED TO GNSS TIME                      
/* G:C1WC2W R:C1PC2P E:C1XC5X C:C2IC6I J:C1CC2S             
/* PCV:IGS14_2196 OL/AL:FES2004  NONE     YN ORB:CoN CLK:CoN
*  2022 05 18  7 30  0.00000000
PC06  -9674.670458  23285.835704 -33799.331203      7.557295
PC07 -15693.915650  38223.186487   7984.121806   -181.323609
PC08     84.821122  34524.291805  24311.187988    318.667279
PC09   -479.527181  24546.686537 -33873.324501   -798.242272
PC10  -8519.091309  38260.823979  15143.764200    131.678011
PC11 -26905.814457   1833.597286   7175.865943    359.279148
PC12 -24203.212447  -9196.562076 -10368.538590   -614.344355
PC13   5492.657093  37928.503990  17998.708632    -29.533172
PC14 -20422.513972  10712.619807  15695.664113    477.575827
PC16 -13309.998592  21800.473332 -33413.589051    132.394063
PC19  19126.738370 -18880.534607  -7529.614625    868.837536
PC20  18876.410397  -2874.320137 -20343.641354   -919.704120
PC21  -7175.405550 -15991.747262  21743.329645   -312.036602
PC22   8389.742450 -24622.072800  10156.303781   -969.527954
PC23    950.825654  24479.074531 -13358.785204   -930.226324
PC24 -18936.973479  -9977.962597 -17900.741210   -965.931256
PC25 -12039.021242  11649.475574 -22326.376540   -735.002704
PC26 -14998.235156 -23133.716480  -4207.637095    736.241924
PC27  17381.317536  13512.840039  17112.995012    724.979692
PC28  -2612.606465  15696.133191  22922.134410     68.087267
PC29  21493.599704  -9370.966252 -15140.196394    556.209992
PC30  27659.891486   2942.164779   2067.662082    498.655926
PC32   7277.356425  15940.505836 -21693.742303   -963.561058
PC33 -19061.163344  18876.001345   7659.114307   -965.967306
PC34 -27799.812828  -2350.110450  -1104.465845   -400.992959
PC35   3221.699827 -15751.379205 -22820.174030    279.277143
PC36  12640.366362 -10821.876489  22426.654952   -964.464867
PC37  13872.103611  24028.693224   3099.308141   -911.010516
PC38  -6463.274364  30519.797643  28460.439793    232.952297
PC39 -19159.582088  20729.798741 -31347.707027     34.982283
PC40 -22855.822502  34864.664347   5674.972318    270.004274
PC41  -8693.324531  24674.008614  -9650.726607   -966.113487
PC42 -18538.799622   1701.238821  20829.890812   -971.561431
PC43 -22075.805536   8959.501292  14537.152741   -923.442994
PC44 -17687.063780 -13088.354697 -17200.561923    663.310012
PC45  -1236.689872 -24550.092099  13195.778735    760.007148
PC46  18789.669003   8492.168344  18823.088580   -330.695295
PE02   7063.366282 -27793.983032   7299.758934    299.900187
PE03  13788.510259 -20012.152184  16912.984493   -559.441710
PE04   6869.474636  15635.640257 -24163.683168  -1030.417509
PE05  26738.766572 -12693.736235   -436.741640   -180.564033
PE07 -23947.391023  -1915.337497  17297.299349   -669.634132
PE08  -7136.147804 -15361.904513  24281.962239   -531.059710
PE09  23988.446268   1624.236499 -17265.835754   -522.223678
PE10  22829.222432  18366.214444   4188.897866   -513.752733
PE11  26053.667080  12604.924682  -6171.117508   3635.358884
PE12  16004.295814  21061.725072  13252.329448   4608.088670
PE13 -26003.596893 -13051.890749   5476.053946    428.749973
PE14  27932.065650  -2861.295905   5877.578307  -1834.273285
PE15 -15971.494579 -21012.178478 -13410.823790    744.967360
PE18 -22121.771729  -7818.382100 -15949.650462  -1435.507095
PE19 -16130.672763  19612.756201 -15197.154454  -4857.870515
PE21 -15434.730600  13759.366979 -21183.634333   -734.851580
PE24  15111.640670  10394.826678  23223.787490   -621.209799
PE25  15505.660513 -13467.905143  21318.926789   -574.345365
PE26 -20155.901361   3371.154634  21412.852343  -1157.884803
PE27 -15438.624310  -8983.833151 -23600.011755   -301.394562
PE30  -5675.411744 -26771.493296 -11273.964886   -519.636688
PE31   6363.946275  26249.784616  12117.433842   -496.808476
PE33  -3445.219730  16537.394985  24302.654048   -456.525426
PE34   3207.342624 -16659.165284 -24266.475568   -517.626080
PE36  20686.129468  -2526.649822 -21018.757086   -375.274382
PG01 -21969.058849 -13575.020353   6656.471370    360.498618
PG02  11099.706741  20072.380788  13911.991367   -653.223962
PG03 -13431.038718  -7640.193328  21508.205222   -248.279127
PG04 -22574.151195  -3023.018569  13745.245365   -166.161543
PG05   6863.659797  21426.578052 -14161.770988    -82.259831
PG06  -3638.444441  15487.318605  21314.855317    307.801474
PG07 -19306.846480    272.460948 -18045.522476    322.140472
PG08 -16005.740763  -8531.024475 -19563.366461    -68.478278
PG09 -25468.202336   6144.452143   4394.579310   -335.855473
PG10  11483.196394 -21060.039581 -10929.365932   -418.905672
PG12  11037.159815  12730.950336  20292.737941   -217.221617
PG13   6393.173371  14006.129978 -21809.057706    313.637437
PG14 -13113.905285  19824.692209 -11760.847915   -108.773514
PG15  17604.670783   7117.820681 -19101.205318    -60.353924
PG16   -952.526448 -24075.104163 -10913.321240   -501.840165
PG17 -19327.520082  13960.795433  12185.378001    614.018285
PG18  19151.381966    241.751712 -18456.860301    167.054873
PG19 -13094.326534  14989.542152  17219.835153    158.821945
PG20   1836.015536  26375.720832  -3610.485694    514.749592
PG21 -20478.404286 -17189.949060  -2575.277545    161.125058
PG22   9641.153047 -16234.007443  19024.484606    260.989302
PG23  14869.765099 -11530.833009 -18713.182470    -22.610739
PG24  22351.408429  14593.105199   1925.785682    238.999002
PG25  15582.605156  -3309.983609  20922.164874    326.147273
PG26   4126.856534 -26046.665933    926.284321    206.395910
PG27  -3031.437094 -14845.580833 -22004.919320    204.611588
PG28  -9116.105119  24865.858688  -2752.981082    355.890204
PG29  25917.200691  -3740.722762   4603.236853   -514.836137
PG30 -12718.029775   9573.555099 -21198.646048   -528.314803
PG31   1958.285229 -17189.559632  19893.187715   -178.089138
PG32  16661.337841 -15872.361635  13240.739439   -129.740078
PJ02 -20677.826286  30699.812547 -15469.290904     -0.167693
PJ03 -28584.056958  23338.312718  25528.382796     -2.229187
PR01  16998.571399  -5034.358751 -18340.546625      8.838265
PR02  18458.856326 -17529.198922   -973.722653    518.720539
PR03   8236.978457 -18579.824622  15429.989326     56.843968
PR04  -6118.253515  -9121.485556  23055.302269    142.071598
PR05 -17311.564127   5223.986196  18017.646268     93.068738
PR07  -7803.828589  18391.105003 -15843.153718     35.235122
PR08   6292.971984   9079.930200 -22930.199038    -65.186389
PR09  -6583.389259  13625.122665 -20495.410983     55.653531
PR11  10577.304912  21335.574128   9132.929975     38.721767
PR12  12240.152887   5321.958386  21765.970293     18.508750
PR13   6988.706237 -12400.997849  21152.436711    -22.450635
PR14  -2962.505046 -24214.253100   7498.360906     25.662417
PR15 -10607.305882 -20992.351502  -9859.232059     96.047791
PR17  -1674.610479 -11216.331279 -22842.717988    527.054191
PR18 -17927.403128 -11588.630339 -13998.440306    117.242220
PR19 -24467.958105  -7137.291064   1029.754386   -189.408458
PR20 -16798.995794   3515.395727  18890.758629    -70.784890
PR21   3315.769910  11460.546318  22542.262030   -302.161082
PR22  18383.540069  11504.278898  13325.637617   -183.868025
PR24  16226.805705  -4666.174445 -19114.006451     94.296187
EOF
